NORAD_CAT_ID,OBJECT_NAME,OBJECT_TYPE,EPOCH,MEAN_MOTION,ECCENTRICITY,INCLINATION,RA_OF_ASC_NODE,ARG_OF_PERICENTER,MEAN_ANOMALY,BSTAR,MEAN_MOTION_DOT,MEAN_MOTION_DDOT,TLE_LINE0,TLE_LINE1,TLE_LINE2,SEMIMAJOR_AXIS,PERIOD,APOGEE,PERIGEE,DECAYED
55741.0,STARLINK-5592,PAYLOAD,2024-05-07 04:38:49,14.98332217,0.0003245,69.9984,137.6552,271.3408,88.7379,8.693e-05,9.44e-06,0.0,0 STARLINK-5592,1 55741U 23028A   24128.19362868  .00000944  00000-0  86930-4 0  9994,2 55741  69.9984 137.6552 0003245 271.3408  88.7379 14.98332217 65448,6950.186,96.107,574.306,569.796,0.0
55741.0,STARLINK-5592,PAYLOAD,2024-05-07 11:03:21,14.98333923,0.0003231,69.9984,136.9819,271.2408,88.838,9.9763e-05,1.098e-05,0.0,0 STARLINK-5592,1 55741U 23028A   24128.46066680  .00001098  00000-0  99763-4 0  9996,2 55741  69.9984 136.9819 0003231 271.2408  88.8380 14.98333923 65684,6950.181,96.107,574.291,569.8,0.0
55741.0,STARLINK-5592,PAYLOAD,2024-05-07 17:27:53,14.9833341,0.0003225,69.9985,136.3086,270.8363,89.2427,7.5905e-05,8.13e-06,0.0,0 STARLINK-5592,1 55741U 23028A   24128.72770682  .00000813  00000-0  75905-4 0  9995,2 55741  69.9985 136.3086 0003225 270.8363  89.2427 14.98333410 65726,6950.182,96.107,574.289,569.806,0.0
55741.0,STARLINK-5592,PAYLOAD,2024-05-08 04:40:50,14.98334989,0.0003225,69.9984,135.1304,270.3512,89.7277,4.8121e-05,4.81e-06,0.0,0 STARLINK-5592,1 55741U 23028A   24129.19502543  .00000481  00000-0  48121-4 0  9997,2 55741  69.9984 135.1304 0003225 270.3512  89.7277 14.98334989 65591,6950.177,96.107,574.284,569.801,0.0
55741.0,STARLINK-5592,PAYLOAD,2024-05-08 09:29:14,14.98335934,0.0003214,69.9984,134.6254,270.1051,89.9739,5.5689e-05,5.72e-06,0.0,0 STARLINK-5592,1 55741U 23028A   24129.39530388  .00000572  00000-0  55689-4 0  9995,2 55741  69.9984 134.6254 0003214 270.1051  89.9739 14.98335934 65825,6950.175,96.107,574.273,569.806,0.0
55741.0,STARLINK-5592,PAYLOAD,2024-05-08 17:29:54,14.98335543,0.0003204,69.9984,133.7838,269.8168,90.2624,3.9507e-05,3.78e-06,0.0,0 STARLINK-5592,1 55741U 23028A   24129.72910324  .00000378  00000-0  39507-4 0  9999,2 55741  69.9984 133.7838 0003204 269.8168  90.2624 14.98335543 65875,6950.176,96.107,574.268,569.814,0.0
55741.0,STARLINK-5592,PAYLOAD,2024-05-09 04:42:50,14.9833495,0.0003173,69.9985,132.6054,269.0893,90.9902,-8.1936e-06,-1.91e-06,0.0,0 STARLINK-5592,1 55741U 23028A   24130.19642309 -.00000191  00000-0 -81936-5 0  9996,2 55741  69.9985 132.6054 0003173 269.0893  90.9902 14.98334950 65749,6950.178,96.107,574.248,569.837,0.0
55741.0,STARLINK-5592,PAYLOAD,2024-05-09 09:31:15,14.98335377,0.0003168,69.9986,132.1006,268.7808,91.2988,-3.2519e-06,-1.32e-06,0.0,0 STARLINK-5592,1 55741U 23028A   24130.39670188 -.00000132  00000-0 -32519-5 0  9992,2 55741  69.9986 132.1006 0003168 268.7808  91.2988 14.98335377 65975,6950.176,96.107,574.243,569.839,0.0
55741.0,STARLINK-5592,PAYLOAD,2024-05-09 17:31:55,14.98335796,0.0003196,69.9985,131.2588,269.145,90.9343,3.5984e-06,-5e-07,0.0,0 STARLINK-5592,1 55741U 23028A   24130.73050054 -.00000050  00000-0  35984-5 0  9991,2 55741  69.9985 131.2588 0003196 269.1450  90.9343 14.98335796 66021,6950.175,96.107,574.261,569.819,0.0
55741.0,STARLINK-5592,PAYLOAD,2024-05-10 04:44:51,14.98333788,0.0003194,69.9985,130.0806,268.8153,91.264,-5.0889e-06,-1.54e-06,0.0,0 STARLINK-5592,1 55741U 23028A   24131.19782076 -.00000154  00000-0 -50889-5 0  9995,2 55741  69.9985 130.0806 0003194 268.8153  91.2640 14.98333788 65892,6950.181,96.107,574.266,569.826,0.0
55741.0,STARLINK-5592,PAYLOAD,2024-05-10 09:33:15,14.98334973,0.0003184,69.9986,129.5756,268.8097,91.2697,9.2804e-06,1.8e-07,0.0,0 STARLINK-5592,1 55741U 23028A   24131.39809903  .00000018  00000-0  92804-5 0  9996,2 55741  69.9986 129.5756 0003184 268.8097  91.2697 14.98334973 66122,6950.178,96.107,574.255,569.83,0.0
55741.0,STARLINK-5592,PAYLOAD,2024-05-10 17:33:56,14.98332077,0.0003196,69.9985,128.7336,268.9257,91.1535,-2.5628e-05,-3.99e-06,0.0,0 STARLINK-5592,1 55741U 23028A   24131.73190099 -.00000399  00000-0 -25628-4 0  9996,2 55741  69.9985 128.7336 0003196 268.9257  91.1535 14.98332077 66176,6950.186,96.107,574.273,569.83,0.0
55741.0,STARLINK-5592,PAYLOAD,2024-05-11 04:46:52,14.98330237,0.0003157,69.9988,127.556,270.1036,89.9761,7.1823e-06,-7e-08,0.0,0 STARLINK-5592,1 55741U 23028A   24132.19922171 -.00000007  00000-0  71823-5 0  9995,2 55741  69.9988 127.5560 0003157 270.1036  89.9761 14.98330237 66040,6950.192,96.107,574.251,569.863,0.0
55741.0,STARLINK-5592,PAYLOAD,2024-05-11 09:35:16,14.98334873,0.000271,70.0004,127.0525,259.2029,100.8825,0.00011577,1.289e-05,0.0,0 STARLINK-5592,1 55741U 23028A   24132.39949780  .00001289  00000-0  11577-3 0  9992,2 55741  70.0004 127.0525 0002710 259.2029 100.8825 14.98334873 66079,6950.178,96.107,573.926,570.159,0.0
55741.0,STARLINK-5592,PAYLOAD,2024-05-12 09:37:16,14.98337427,0.0003057,69.9988,124.5266,268.5472,91.5336,6.4929e-05,6.82e-06,0.0,0 STARLINK-5592,1 55741U 23028A   24133.40088993  .00000682  00000-0  64929-4 0  9991,2 55741  69.9988 124.5266 0003057 268.5472  91.5336 14.98337427 66229,6950.17,96.107,574.16,569.91,0.0
55741.0,STARLINK-5592,PAYLOAD,2024-05-13 04:50:55,14.98310433,0.0003208,69.9988,122.507,268.5993,91.4799,-1.9739e-05,-3.28e-06,0.0,0 STARLINK-5592,1 55741U 23028A   24134.20203234 -.00000328  00000-0 -19739-4 0  9995,2 55741  69.9988 122.5070 0003208 268.5993  91.4799 14.98310433 66349,6950.253,96.108,574.348,569.889,0.0
55741.0,STARLINK-5592,PAYLOAD,2024-05-13 08:03:09,14.9844151,0.0002815,69.9994,122.1716,239.8177,120.2703,-0.0024355,-0.00029116,0.0,0 STARLINK-5592,1 55741U 23028A   24134.33552531 -.00029116  00000-0 -24355-2 0  9990,2 55741  69.9994 122.1716 0002815 239.8177 120.2703 14.98441510 66366,6949.848,96.1,573.669,569.757,0.0
55741.0,STARLINK-5592,PAYLOAD,2024-05-13 16:03:52,14.98320655,0.0002789,69.9992,121.3296,263.2267,96.8575,-0.00022536,-2.78e-05,0.0,0 STARLINK-5592,1 55741U 23028A   24134.66935527 -.00002780  00000-0 -22536-3 0  9994,2 55741  69.9992 121.3296 0002789 263.2267  96.8575 14.98320655 66416,6950.222,96.108,574.025,570.148,0.0
55741.0,STARLINK-5592,PAYLOAD,2024-05-14 04:52:56,14.98328975,0.0002299,70.0003,119.9829,254.7188,105.3717,4.2343e-05,4.12e-06,0.0,0 STARLINK-5592,1 55741U 23028A   24135.20342630  .00000412  00000-0  42343-4 0  9999,2 55741  70.0003 119.9829 0002299 254.7188 105.3717 14.98328975 66495,6950.196,96.107,573.659,570.463,0.0
55741.0,STARLINK-5592,PAYLOAD,2024-05-14 09:41:20,14.98331002,0.0002242,70.0005,119.4777,257.3021,102.7888,7.4323e-05,7.94e-06,0.0,0 STARLINK-5592,1 55741U 23028A   24135.40370467  .00000794  00000-0  74323-4 0  9996,2 55741  70.0005 119.4777 0002242 257.3021 102.7888 14.98331002 66728,6950.19,96.107,573.613,570.497,0.0
55741.0,STARLINK-5592,PAYLOAD,2024-05-14 16:05:51,14.98338526,0.0002956,69.999,118.8027,270.6756,89.4065,0.0001153,1.283e-05,0.0,0 STARLINK-5592,1 55741U 23028A   24135.67073626  .00001283  00000-0  11530-3 0  9996,2 55741  69.9990 118.8027 0002956 270.6756  89.4065 14.98338526 66562,6950.167,96.106,574.086,569.977,0.0
55741.0,STARLINK-5592,PAYLOAD,2024-05-15 09:43:20,14.98334738,0.000287,69.9989,116.9513,267.4263,92.6568,0.00034228,3.994e-05,0.0,0 STARLINK-5592,1 55741U 23028A   24136.40509359  .00003994  00000-0  34228-3 0  9995,2 55741  69.9989 116.9513 0002870 267.4263  92.6568 14.98334738 66870,6950.178,96.107,574.038,570.049,0.0
55741.0,STARLINK-5592,PAYLOAD,2024-05-15 22:32:25,14.98332801,0.0002348,70.0003,115.6038,265.1414,94.9477,8.1583e-05,8.81e-06,0.0,0 STARLINK-5592,1 55741U 23028A   24136.93918204  .00000881  00000-0  81583-4 0  9995,2 55741  70.0003 115.6038 0002348 265.1414  94.9477 14.98332801 66953,6950.184,96.107,573.681,570.417,0.0
55741.0,STARLINK-5592,PAYLOAD,2024-05-16 04:56:57,14.98336508,0.0002953,69.9988,114.9304,268.4625,91.6196,-9.2865e-05,-1.201e-05,0.0,0 STARLINK-5592,1 55741U 23028A   24137.20622353 -.00001201  00000-0 -92865-4 0  9997,2 55741  69.9988 114.9304 0002953 268.4625  91.6196 14.98336508 66794,6950.173,96.107,574.09,569.985,0.0
55741.0,STARLINK-5592,PAYLOAD,2024-05-16 08:09:13,14.9833717,0.0003057,69.999,114.5947,269.5035,90.5773,-6.7164e-05,-8.94e-06,0.0,0 STARLINK-5592,1 55741U 23028A   24137.33974189 -.00000894  00000-0 -67164-4 0  9999,2 55741  69.9990 114.5947 0003057 269.5035  90.5773 14.98337170 67010,6950.171,96.107,574.16,569.911,0.0
55741.0,STARLINK-5592,PAYLOAD,2024-05-16 22:34:25,14.98338969,0.0003148,69.9989,113.079,269.8144,90.2655,-3.6822e-05,-5.32e-06,0.0,0 STARLINK-5592,1 55741U 23028A   24137.94057616 -.00000532  00000-0 -36822-4 0  9999,2 55741  69.9989 113.0790 0003148 269.8144  90.2655 14.98338969 67106,6950.165,96.106,574.218,569.842,0.0
55741.0,STARLINK-5592,PAYLOAD,2024-05-17 04:58:57,14.9834269,0.000308,69.9989,112.4062,269.4897,90.5909,-1.2379e-05,-2.41e-06,0.0,0 STARLINK-5592,1 55741U 23028A   24138.20761167 -.00000241  00000-0 -12379-4 0  9990,2 55741  69.9989 112.4062 0003080 269.4897  90.5909 14.98342690 66949,6950.154,96.106,574.159,569.878,0.0
55741.0,STARLINK-5592,PAYLOAD,2024-05-17 08:11:13,14.9834315,0.0002969,69.999,112.0696,265.6022,94.4798,3.9722e-05,3.81e-06,0.0,0 STARLINK-5592,1 55741U 23028A   24138.34112919  .00000381  00000-0  39722-4 0  9994,2 55741  69.9990 112.0696 0002969 265.6022  94.4798 14.98343150 67169,6950.152,96.106,574.081,569.954,0.0
55741.0,STARLINK-5592,PAYLOAD,2024-05-17 16:11:54,14.9832693,0.0002948,69.9991,111.2275,268.2261,91.8561,5.1476e-05,5.21e-06,0.0,0 STARLINK-5592,1 55741U 23028A   24138.67493787  .00000521  00000-0  51476-4 0  9991,2 55741  69.9991 111.2275 0002948 268.2261  91.8561 14.98326930 67015,6950.202,96.107,574.116,570.018,0.0
55741.0,STARLINK-5592,PAYLOAD,2024-05-17 22:36:26,14.98326371,0.0003122,69.9992,110.5544,270.3642,89.7159,1.7554e-06,-7.2e-07,0.0,0 STARLINK-5592,1 55741U 23028A   24138.94197892 -.00000072  00000-0  17554-5 0  9991,2 55741  69.9992 110.5544 0003122 270.3642  89.7159 14.98326371 67253,6950.204,96.107,574.239,569.899,0.0
